ALOS (DAICHI)           
1 28931U 06002A   26037.86723213  .00002189  00000+0  37570-3 0  9995
2 28931  98.1170 353.9906 0002011  68.1833 291.9587 14.69707022 68956
H-2A R/B                
1 28932U 06002B   26037.85296135  .00010124  00000+0  51536-3 0  9999
2 28932  98.2364 182.2533 0052932 347.4613  12.5297 15.15802869 89762
RESURS-DK 1             
1 29228U 06021A   26037.85198012  .00004248  00000+0  24899-3 0  9996
2 29228  69.9349 316.7809 0004793 206.9960 153.0957 15.12563036 82860
CZ-4B R/B               
1 29507U 06046C   26037.66787083  .00006853  00000+0  34950-3 0  9997
2 29507  97.5650  82.6573 0033920  17.7585 342.4825 15.16566682 55349
CZ-2C R/B               
1 31114U 07010B   26037.79821921  .00000161  00000+0  92972-4 0  9995
2 31114  98.3970 152.6286 0059397  25.0887 335.3156 14.20235390975333
COSMO-SKYMED 1          
1 31598U 07023A   26037.83829668  .00005696  00000+0  50919-3 0  9998
2 31598  97.8856 228.6299 0000985  74.2904 285.8425 14.96292281 10297
COSMOS 2428             
1 31792U 07029A   26037.80955278  .00000342  00000+0  20952-3 0  9991
2 31792  70.9397 268.1659 0007185 311.1722  48.8778 14.12931406959730
SL-16 R/B               
1 31793U 07029B   26037.81382925  .00000449  00000+0  25766-3 0  9992
2 31793  70.9731 237.2865 0001891 276.2730 169.9799 14.14830114961004
KORONAS-FOTON           
1 33504U 09003A   26037.82854041  .00012487  00000+0  28676-3 0  9990
2 33504  82.4327 307.9392 0008890 270.1031  89.9198 15.42513082940980
CZ-2C R/B               
1 37731U 11030B   26037.87366401  .00002050  00000+0  26417-3 0  9998
2 37731  97.8493 355.7690 0054210  90.5512 329.0692 14.81103212785534
H-2A R/B                
1 38341U 12025E   26037.80743037  .00004493  00000+0  40961-3 0  9991
2 38341  98.4682   2.4026 0046035  54.6525 305.8983 14.94895649743602
SHIJIAN-16 (SJ-16)      
1 39358U 13057A   26037.85677111  .00001472  00000+0  14687-3 0  9990
2 39358  74.9702 243.4546 0016930 189.2303 170.8576 14.92234389666908
