CCSDS_OMM_VERS = 2.0
CREATION_DATE  = 
ORIGINATOR     = 

OBJECT_NAME    = ALOS (DAICHI)
OBJECT_ID      = 2006-002A
CENTER_NAME    = EARTH
REF_FRAME      = TEME
TIME_SYSTEM    = UTC
MEAN_ELEMENT_THEORY = SGP/SGP4

EPOCH          = 2026-02-06T20:48:48.856032
MEAN_MOTION    = 14.69707022
ECCENTRICITY   = .0002011
INCLINATION    = 98.1170
RA_OF_ASC_NODE = 353.9906
ARG_OF_PERICENTER = 68.1833
MEAN_ANOMALY   = 291.9587

EPHEMERIS_TYPE = 0
CLASSIFICATION_TYPE = U
NORAD_CAT_ID   = 28931
ELEMENT_SET_NO = 999
REV_AT_EPOCH   = 6895
BSTAR          = .3757E-3
MEAN_MOTION_DOT = .2189E-4
MEAN_MOTION_DDOT = 0

CCSDS_OMM_VERS = 2.0
CREATION_DATE  = 
ORIGINATOR     = 

OBJECT_NAME    = H-2A R/B
OBJECT_ID      = 2006-002B
CENTER_NAME    = EARTH
REF_FRAME      = TEME
TIME_SYSTEM    = UTC
MEAN_ELEMENT_THEORY = SGP/SGP4

EPOCH          = 2026-02-06T20:28:15.860640
MEAN_MOTION    = 15.15802869
ECCENTRICITY   = .0052932
INCLINATION    = 98.2364
RA_OF_ASC_NODE = 182.2533
ARG_OF_PERICENTER = 347.4613
MEAN_ANOMALY   = 12.5297

EPHEMERIS_TYPE = 0
CLASSIFICATION_TYPE = U
NORAD_CAT_ID   = 28932
ELEMENT_SET_NO = 999
REV_AT_EPOCH   = 8976
BSTAR          = .51536E-3
MEAN_MOTION_DOT = .10124E-3
MEAN_MOTION_DDOT = 0

CCSDS_OMM_VERS = 2.0
CREATION_DATE  = 
ORIGINATOR     = 

OBJECT_NAME    = RESURS-DK 1
OBJECT_ID      = 2006-021A
CENTER_NAME    = EARTH
REF_FRAME      = TEME
TIME_SYSTEM    = UTC
MEAN_ELEMENT_THEORY = SGP/SGP4

EPOCH          = 2026-02-06T20:26:51.082368
MEAN_MOTION    = 15.12563036
ECCENTRICITY   = .0004793
INCLINATION    = 69.9349
RA_OF_ASC_NODE = 316.7809
ARG_OF_PERICENTER = 206.9960
MEAN_ANOMALY   = 153.0957

EPHEMERIS_TYPE = 0
CLASSIFICATION_TYPE = U
NORAD_CAT_ID   = 29228
ELEMENT_SET_NO = 999
REV_AT_EPOCH   = 8286
BSTAR          = .24899E-3
MEAN_MOTION_DOT = .4248E-4
MEAN_MOTION_DDOT = 0

CCSDS_OMM_VERS = 2.0
CREATION_DATE  = 
ORIGINATOR     = 

OBJECT_NAME    = CZ-4B R/B
OBJECT_ID      = 2006-046C
CENTER_NAME    = EARTH
REF_FRAME      = TEME
TIME_SYSTEM    = UTC
MEAN_ELEMENT_THEORY = SGP/SGP4

EPOCH          = 2026-02-06T16:01:44.039712
MEAN_MOTION    = 15.16566682
ECCENTRICITY   = .003392
INCLINATION    = 97.5650
RA_OF_ASC_NODE = 82.6573
ARG_OF_PERICENTER = 17.7585
MEAN_ANOMALY   = 342.4825

EPHEMERIS_TYPE = 0
CLASSIFICATION_TYPE = U
NORAD_CAT_ID   = 29507
ELEMENT_SET_NO = 999
REV_AT_EPOCH   = 5534
BSTAR          = .3495E-3
MEAN_MOTION_DOT = .6853E-4
MEAN_MOTION_DDOT = 0

CCSDS_OMM_VERS = 2.0
CREATION_DATE  = 
ORIGINATOR     = 

OBJECT_NAME    = CZ-2C R/B
OBJECT_ID      = 2007-010B
CENTER_NAME    = EARTH
REF_FRAME      = TEME
TIME_SYSTEM    = UTC
MEAN_ELEMENT_THEORY = SGP/SGP4

EPOCH          = 2026-02-06T19:09:26.139744
MEAN_MOTION    = 14.20235390
ECCENTRICITY   = .0059397
INCLINATION    = 98.3970
RA_OF_ASC_NODE = 152.6286
ARG_OF_PERICENTER = 25.0887
MEAN_ANOMALY   = 335.3156

EPHEMERIS_TYPE = 0
CLASSIFICATION_TYPE = U
NORAD_CAT_ID   = 31114
ELEMENT_SET_NO = 999
REV_AT_EPOCH   = 97533
BSTAR          = .92972E-4
MEAN_MOTION_DOT = .161E-5
MEAN_MOTION_DDOT = 0

CCSDS_OMM_VERS = 2.0
CREATION_DATE  = 
ORIGINATOR     = 

OBJECT_NAME    = COSMO-SKYMED 1
OBJECT_ID      = 2007-023A
CENTER_NAME    = EARTH
REF_FRAME      = TEME
TIME_SYSTEM    = UTC
MEAN_ELEMENT_THEORY = SGP/SGP4

EPOCH          = 2026-02-06T20:07:08.833152
MEAN_MOTION    = 14.96292281
ECCENTRICITY   = .0000985
INCLINATION    = 97.8856
RA_OF_ASC_NODE = 228.6299
ARG_OF_PERICENTER = 74.2904
MEAN_ANOMALY   = 285.8425

EPHEMERIS_TYPE = 0
CLASSIFICATION_TYPE = U
NORAD_CAT_ID   = 31598
ELEMENT_SET_NO = 999
REV_AT_EPOCH   = 1029
BSTAR          = .50919E-3
MEAN_MOTION_DOT = .5696E-4
MEAN_MOTION_DDOT = 0

CCSDS_OMM_VERS = 2.0
CREATION_DATE  = 
ORIGINATOR     = 

OBJECT_NAME    = COSMOS 2428
OBJECT_ID      = 2007-029A
CENTER_NAME    = EARTH
REF_FRAME      = TEME
TIME_SYSTEM    = UTC
MEAN_ELEMENT_THEORY = SGP/SGP4

EPOCH          = 2026-02-06T19:25:45.360192
MEAN_MOTION    = 14.12931406
ECCENTRICITY   = .0007185
INCLINATION    = 70.9397
RA_OF_ASC_NODE = 268.1659
ARG_OF_PERICENTER = 311.1722
MEAN_ANOMALY   = 48.8778

EPHEMERIS_TYPE = 0
CLASSIFICATION_TYPE = U
NORAD_CAT_ID   = 31792
ELEMENT_SET_NO = 999
REV_AT_EPOCH   = 95973
BSTAR          = .20952E-3
MEAN_MOTION_DOT = .342E-5
MEAN_MOTION_DDOT = 0

CCSDS_OMM_VERS = 2.0
CREATION_DATE  = 
ORIGINATOR     = 

OBJECT_NAME    = SL-16 R/B
OBJECT_ID      = 2007-029B
CENTER_NAME    = EARTH
REF_FRAME      = TEME
TIME_SYSTEM    = UTC
MEAN_ELEMENT_THEORY = SGP/SGP4

EPOCH          = 2026-02-06T19:31:54.847200
MEAN_MOTION    = 14.14830114
ECCENTRICITY   = .0001891
INCLINATION    = 70.9731
RA_OF_ASC_NODE = 237.2865
ARG_OF_PERICENTER = 276.2730
MEAN_ANOMALY   = 169.9799

EPHEMERIS_TYPE = 0
CLASSIFICATION_TYPE = U
NORAD_CAT_ID   = 31793
ELEMENT_SET_NO = 999
REV_AT_EPOCH   = 96100
BSTAR          = .25766E-3
MEAN_MOTION_DOT = .449E-5
MEAN_MOTION_DDOT = 0

CCSDS_OMM_VERS = 2.0
CREATION_DATE  = 
ORIGINATOR     = 

OBJECT_NAME    = KORONAS-FOTON
OBJECT_ID      = 2009-003A
CENTER_NAME    = EARTH
REF_FRAME      = TEME
TIME_SYSTEM    = UTC
MEAN_ELEMENT_THEORY = SGP/SGP4

EPOCH          = 2026-02-06T19:53:05.891424
MEAN_MOTION    = 15.42513082
ECCENTRICITY   = .000889
INCLINATION    = 82.4327
RA_OF_ASC_NODE = 307.9392
ARG_OF_PERICENTER = 270.1031
MEAN_ANOMALY   = 89.9198

EPHEMERIS_TYPE = 0
CLASSIFICATION_TYPE = U
NORAD_CAT_ID   = 33504
ELEMENT_SET_NO = 999
REV_AT_EPOCH   = 94098
BSTAR          = .28676E-3
MEAN_MOTION_DOT = .12487E-3
MEAN_MOTION_DDOT = 0

CCSDS_OMM_VERS = 2.0
CREATION_DATE  = 
ORIGINATOR     = 

OBJECT_NAME    = CZ-2C R/B
OBJECT_ID      = 2011-030B
CENTER_NAME    = EARTH
REF_FRAME      = TEME
TIME_SYSTEM    = UTC
MEAN_ELEMENT_THEORY = SGP/SGP4

EPOCH          = 2026-02-06T20:58:04.570464
MEAN_MOTION    = 14.81103212
ECCENTRICITY   = .005421
INCLINATION    = 97.8493
RA_OF_ASC_NODE = 355.7690
ARG_OF_PERICENTER = 90.5512
MEAN_ANOMALY   = 329.0692

EPHEMERIS_TYPE = 0
CLASSIFICATION_TYPE = U
NORAD_CAT_ID   = 37731
ELEMENT_SET_NO = 999
REV_AT_EPOCH   = 78553
BSTAR          = .26417E-3
MEAN_MOTION_DOT = .205E-4
MEAN_MOTION_DDOT = 0

CCSDS_OMM_VERS = 2.0
CREATION_DATE  = 
ORIGINATOR     = 

OBJECT_NAME    = H-2A R/B
OBJECT_ID      = 2012-025E
CENTER_NAME    = EARTH
REF_FRAME      = TEME
TIME_SYSTEM    = UTC
MEAN_ELEMENT_THEORY = SGP/SGP4

EPOCH          = 2026-02-06T19:22:41.983968
MEAN_MOTION    = 14.94895649
ECCENTRICITY   = .0046035
INCLINATION    = 98.4682
RA_OF_ASC_NODE = 2.4026
ARG_OF_PERICENTER = 54.6525
MEAN_ANOMALY   = 305.8983

EPHEMERIS_TYPE = 0
CLASSIFICATION_TYPE = U
NORAD_CAT_ID   = 38341
ELEMENT_SET_NO = 999
REV_AT_EPOCH   = 74360
BSTAR          = .40961E-3
MEAN_MOTION_DOT = .4493E-4
MEAN_MOTION_DDOT = 0

CCSDS_OMM_VERS = 2.0
CREATION_DATE  = 
ORIGINATOR     = 

OBJECT_NAME    = SHIJIAN-16 (SJ-16)
OBJECT_ID      = 2013-057A
CENTER_NAME    = EARTH
REF_FRAME      = TEME
TIME_SYSTEM    = UTC
MEAN_ELEMENT_THEORY = SGP/SGP4

EPOCH          = 2026-02-06T20:33:45.023904
MEAN_MOTION    = 14.92234389
ECCENTRICITY   = .001693
INCLINATION    = 74.9702
RA_OF_ASC_NODE = 243.4546
ARG_OF_PERICENTER = 189.2303
MEAN_ANOMALY   = 170.8576

EPHEMERIS_TYPE = 0
CLASSIFICATION_TYPE = U
NORAD_CAT_ID   = 39358
ELEMENT_SET_NO = 999
REV_AT_EPOCH   = 66690
BSTAR          = .14687E-3
MEAN_MOTION_DOT = .1472E-4
MEAN_MOTION_DDOT = 0

